QIANFAN-17              
1 60395U 24140S   25298.14740567  .00000041  00000+0  44582-4 0  9995
2 60395  88.9743 304.4689 0014671 354.4069   5.6916 13.50970422 61577
QIANFAN-18              
1 60396U 24140T   25298.12680634  .00000101  00000+0  13770-3 0  9993
2 60396  88.9735 304.0080 0013394 336.8736  23.1811 13.50970641 60960
QIANFAN-19              
1 61552U 24185A   25298.18966095  .00000875  00000+0  45124-3 0  9997
2 61552  88.9783  83.4984 0009090  99.4985 260.7230 14.14216872 62804
QIANFAN-20              
1 61553U 24185B   25298.17646434  .00000732  00000+0  41683-3 0  9997
2 61553  88.9780  83.7749 0007279 129.3881 230.7948 14.08766320 62656
QIANFAN-21              
1 61554U 24185C   25298.14512264  .00001110  00000+0  49131-3 0  9995
2 61554  88.9698  82.6651 0011632 152.1586 208.0231 14.22503082 63068
QIANFAN-22              
1 61555U 24185D   25298.14085990  .00000308  00000+0  25504-3 0  9993
2 61555  88.9764  84.5653 0008012 133.6700 226.5137 13.86276489 62208
QIANFAN-23              
1 61556U 24185E   25298.16283559  .00000930  00000+0  46282-3 0  9994
2 61556  88.9775  83.3339 0009818 109.2043 251.0208 14.16215177 62879
QIANFAN-24              
1 61557U 24185F   25298.11859928  .00000945  00000+0  40745-3 0  9993
2 61557  88.9756  82.8235 0011653  96.5377 263.7142 14.23710507 63105
